OBJECT_NAME,OBJECT_ID,EPOCH,MEAN_MOTION,ECCENTRICITY,INCLINATION,RA_OF_ASC_NODE,ARG_OF_PERICENTER,MEAN_ANOMALY,EPHEMERIS_TYPE,CLASSIFICATION_TYPE,NORAD_CAT_ID,ELEMENT_SET_NO,REV_AT_EPOCH,BSTAR,MEAN_MOTION_DOT,MEAN_MOTION_DDOT
STARLINK-4369,2022-084C,2025-07-21T03:48:15.483456,15.01259858,0.0001627,97.6539,263.2851,97.6908,262.4501,0,U,53191,999,16495,-1.05E-05,-1.94E-06,0
STARLINK-4375,2022-084D,2025-07-20T21:21:40.856544,15.01255472,0.0001336,97.6542,263.019,98.3095,261.828,0,U,53192,999,16520,-1.98E-04,-2.60E-05,0
STARLINK-4351,2022-084E,2025-07-21T03:53:35.651616,15.01259199,0.0002852,97.6525,263.2938,63.4087,296.743,0,U,53193,999,16496,1.27E-06,-4.30E-07,0
STARLINK-4382,2022-084F,2025-07-21T03:50:56.844096,15.01251859,0.0001871,97.6529,263.2896,91.7795,268.3644,0,U,53194,999,16495,1.22E-04,1.51E-05,0
STARLINK-4404,2022-084G,2025-07-21T04:08:32.114688,15.12625485,0.0001211,97.6553,263.5621,70.5062,289.6299,0,U,53195,999,16497,4.80E-05,7.71E-06,0
STARLINK-4407,2022-084H,2025-07-21T10:36:48.796416,15.12480754,0.000123,97.6553,263.8264,71.383,288.7534,0,U,53196,999,16501,1.95E-04,3.32E-05,0
STARLINK-4403,2022-084J,2025-07-20T21:13:40.162368,15.01258048,0.0001339,97.6542,263.0111,175.795,184.3286,0,U,53197,999,16453,5.96E-05,7.06E-06,0
STARLINK-4385,2022-084K,2025-07-20T21:19:00.232896,15.01260253,0.0001156,97.6542,263.0157,115.5131,244.6213,0,U,53198,999,16519,4.70E-05,5.45E-06,0
STARLINK-4395,2022-084L,2025-07-21T03:40:15.472704,15.01254347,0.0001171,97.6521,263.2656,121.673,238.4608,0,U,53199,999,16495,-8.97E-05,-1.21E-05,0
STARLINK-4417,2022-084M,2025-07-21T09:59:14.541792,15.01225361,0.0002213,97.6538,263.542,157.4801,202.652,0,U,53200,999,16499,-2.91E-04,-3.80E-05,0
STARLINK-4405,2022-084N,2025-07-21T06:00:00.999648,15.01292152,0.0003106,97.6547,263.3821,167.7207,65.2753,0,U,53201,999,16496,-3.52E-03,-4.50E-04,0
STARLINK-4411,2022-084P,2025-07-21T03:29:35.722176,15.01256698,0.0003507,97.6545,263.2765,167.2543,192.877,0,U,53202,999,16494,-8.94E-06,-1.74E-06,0
STARLINK-4409,2022-084Q,2025-07-20T22:36:19.433376,15.01258334,0.0002698,97.6544,263.0659,171.1353,188.9919,0,U,53203,999,16454,-2.20E-05,-3.41E-06,0
STARLINK-4410,2022-084R,2025-07-21T09:53:52.565280,15.01293346,0.0003718,97.6544,263.5341,172.9521,187.1756,0,U,53204,999,16499,1.07E-03,1.37E-04,0
STARLINK-4397,2022-084S,2025-07-20T09:43:09.217056,15.01262845,0.0003414,97.655,262.5366,139.39,220.7579,0,U,53205,999,16446,1.73E-05,1.63E-06,0
STARLINK-4408,2022-084T,2025-07-21T03:02:55.939776,15.01259126,0.0001844,97.6577,263.2909,82.6024,277.541,0,U,53206,999,16495,5.34E-05,6.27E-06,0
STARLINK-4413,2022-084U,2025-07-21T03:16:15.988224,15.01257451,0.0003991,97.6547,263.2517,168.12,192.0119,0,U,53207,999,16495,2.05E-05,2.05E-06,0
STARLINK-4425,2022-084V,2025-07-20T22:38:59.826336,15.01262228,0.0003499,97.6545,263.0677,166.6145,193.5172,0,U,53208,999,16454,-1.14E-04,-1.53E-05,0
STARLINK-4423,2022-084W,2025-07-21T14:00:01.000224,15.01227337,0.000291,97.6556,263.6979,115.0979,148.3191,0,U,53209,999,16502,5.47E-03,7.09E-04,0
STARLINK-4427,2022-084X,2025-07-21T03:21:35.829792,15.01258488,0.000386,97.6543,263.2606,169.5458,190.5847,0,U,53210,999,16495,-9.45E-06,-1.81E-06,0
STARLINK-4416,2022-084Z,2025-07-20T03:14:27.786912,15.00919885,0.0004414,97.6558,262.2708,105.1254,255.0458,0,U,53212,999,16441,-3.18E-03,-4.03E-04,0
CSS (WENTIAN),2022-085A,2025-07-20T23:14:38.989248,15.56858236,0.000791,41.4633,175.8377,316.7104,43.3111,0,U,53239,999,23717,1.35E-04,9.70E-05,0
STARLINK-4056,2022-086A,2025-07-20T14:21:44.874720,15.08837912,0.0001481,53.2171,161.0072,78.5359,281.5799,0,U,53242,999,16627,2.37E-05,8.90E-07,0
STARLINK-4058,2022-086AA,2025-07-20T06:59:55.275936,15.08840494,0.0001393,53.2178,157.3974,80.4351,279.6799,0,U,53266,999,16598,1.64E-06,-2.62E-06,0
STARLINK-4060,2022-086AB,2025-07-20T14:40:57.761760,15.08836626,0.0001289,53.2171,155.9609,78.3398,281.7739,0,U,53267,999,16603,-2.35E-05,-6.62E-06,0
STARLINK-4109,2022-086AC,2025-07-21T03:29:20.298912,15.08839189,0.0001349,53.2174,153.5646,73.3131,286.8009,0,U,53268,999,16593,-6.07E-06,-3.85E-06,0
STARLINK-4057,2022-086AD,2025-07-21T03:14:46.414752,15.08833991,0.0001548,53.2178,143.611,95.2325,264.8844,0,U,53269,999,16606,2.35E-05,8.60E-07,0
STARLINK-4122,2022-086AG,2025-07-20T13:01:35.868000,15.08836584,0.0001471,53.2173,146.2685,83.0116,277.1043,0,U,53272,999,16615,9.36E-06,-1.39E-06,0
STARLINK-4051,2022-086AH,2025-07-20T06:13:33.267648,15.08842073,0.000149,53.2174,147.5415,98.7429,261.3732,0,U,53273,999,16610,-7.86E-05,-1.54E-05,0
STARLINK-4050,2022-086AJ,2025-07-20T06:29:27.381120,15.08837558,0.0001794,53.2174,147.4909,91.5103,268.6095,0,U,53274,999,16611,2.12E-05,4.90E-07,0
