STARLINK-4369           
1 53191U 22084C   25202.15851254 -.00000194  00000+0 -10527-4 0  9991
2 53191  97.6539 263.2851 0001627  97.6908 262.4501 15.01259858164951
STARLINK-4375           
1 53192U 22084D   25201.89005621 -.00002598  00000+0 -19780-3 0  9990
2 53192  97.6542 263.0190 0001336  98.3095 261.8280 15.01255472165206
STARLINK-4351           
1 53193U 22084E   25202.16221819 -.00000043  00000+0  12702-5 0  9992
2 53193  97.6525 263.2938 0002852  63.4087 296.7430 15.01259199164964
STARLINK-4382           
1 53194U 22084F   25202.16038014  .00001510  00000+0  12212-3 0  9999
2 53194  97.6529 263.2896 0001871  91.7795 268.3644 15.01251859164958
STARLINK-4404           
1 53195U 22084G   25202.17259392  .00000771  00000+0  47958-4 0  9999
2 53195  97.6553 263.5621 0001211  70.5062 289.6299 15.12625485164971
STARLINK-4407           
1 53196U 22084H   25202.44223144  .00003320  00000+0  19467-3 0  9992
2 53196  97.6553 263.8264 0001230  71.3830 288.7534 15.12480754165017
STARLINK-4403           
1 53197U 22084J   25201.88449262  .00000706  00000+0  59586-4 0  9993
2 53197  97.6542 263.0111 0001339 175.7950 184.3286 15.01258048164539
STARLINK-4385           
1 53198U 22084K   25201.88819714  .00000545  00000+0  46991-4 0  9994
2 53198  97.6542 263.0157 0001156 115.5131 244.6213 15.01260253165194
STARLINK-4395           
1 53199U 22084L   25202.15295686 -.00001211  00000+0 -89730-4 0  9993
2 53199  97.6521 263.2656 0001171 121.6730 238.4608 15.01254347164957
STARLINK-4417           
1 53200U 22084M   25202.41614053 -.00003797  00000+0 -29142-3 0  9999
2 53200  97.6538 263.5420 0002213 157.4801 202.6520 15.01225361164998
STARLINK-4405           
1 53201U 22084N   25202.25001157 -.00045025  00000+0 -35199-2 0  9995
2 53201  97.6547 263.3821 0003106 167.7207  65.2753 15.01292152164968
STARLINK-4411           
1 53202U 22084P   25202.14555234 -.00000174  00000+0 -89446-5 0  9997
2 53202  97.6545 263.2765 0003507 167.2543 192.8770 15.01256698164945
STARLINK-4409           
1 53203U 22084Q   25201.94189159 -.00000341  00000+0 -21951-4 0  9996
2 53203  97.6544 263.0659 0002698 171.1353 188.9919 15.01258334164544
STARLINK-4410           
1 53204U 22084R   25202.41241395  .00013749  00000+0  10719-2 0  9993
2 53204  97.6544 263.5341 0003718 172.9521 187.1756 15.01293346164999
STARLINK-4397           
1 53205U 22084S   25201.40496779  .00000163  00000+0  17270-4 0  9997
2 53205  97.6550 262.5366 0003414 139.3900 220.7579 15.01262845164463
STARLINK-4408           
1 53206U 22084T   25202.12703634  .00000627  00000+0  53443-4 0  9996
2 53206  97.6577 263.2909 0001844  82.6024 277.5410 15.01259126164952
STARLINK-4413           
1 53207U 22084U   25202.13629616  .00000205  00000+0  20536-4 0  9994
2 53207  97.6547 263.2517 0003991 168.1200 192.0119 15.01257451164952
STARLINK-4425           
1 53208U 22084V   25201.94374799 -.00001525  00000+0 -11410-3 0  9990
2 53208  97.6545 263.0677 0003499 166.6145 193.5172 15.01262228164548
STARLINK-4423           
1 53209U 22084W   25202.58334491  .00070888  00000+0  54728-2 0  9991
2 53209  97.6556 263.6979 0002910 115.0979 148.3191 15.01227337165027
STARLINK-4427           
1 53210U 22084X   25202.13999803 -.00000181  00000+0 -94519-5 0  9994
2 53210  97.6543 263.2606 0003860 169.5458 190.5847 15.01258488164958
STARLINK-4416           
1 53212U 22084Z   25201.13504383 -.00040335  00000+0 -31812-2 0  9999
2 53212  97.6558 262.2708 0004414 105.1254 255.0458 15.00919885164414
CSS (WENTIAN)           
1 53239U 22085A   25201.96850682  .00009696  00000+0  13537-3 0  9994
2 53239  41.4633 175.8377 0007910 316.7104  43.3111 15.56858236237174
STARLINK-4056           
1 53242U 22086A   25201.59843605  .00000089  00000+0  23671-4 0  9993
2 53242  53.2171 161.0072 0001481  78.5359 281.5799 15.08837912166272
STARLINK-4058           
1 53266U 22086AA  25201.29161199 -.00000262  00000+0  16435-5 0  9992
2 53266  53.2178 157.3974 0001393  80.4351 279.6799 15.08840494165984
STARLINK-4060           
1 53267U 22086AB  25201.61177965 -.00000662  00000+0 -23519-4 0  9992
2 53267  53.2171 155.9609 0001289  78.3398 281.7739 15.08836626166035
STARLINK-4109           
1 53268U 22086AC  25202.14537383 -.00000385  00000+0 -60737-5 0  9992
2 53268  53.2174 153.5646 0001349  73.3131 286.8009 15.08839189165932
STARLINK-4057           
1 53269U 22086AD  25202.13525943  .00000086  00000+0  23518-4 0  9992
2 53269  53.2178 143.6110 0001548  95.2325 264.8844 15.08833991166065
STARLINK-4122           
1 53272U 22086AG  25201.54277625 -.00000139  00000+0  93639-5 0  9993
2 53272  53.2173 146.2685 0001471  83.0116 277.1043 15.08836584166157
STARLINK-4051           
1 53273U 22086AH  25201.25941282 -.00001539  00000+0 -78589-4 0  9991
2 53273  53.2174 147.5415 0001490  98.7429 261.3732 15.08842073166100
STARLINK-4050           
1 53274U 22086AJ  25201.27045580  .00000049  00000+0  21202-4 0  9993
2 53274  53.2174 147.4909 0001794  91.5103 268.6095 15.08837558166110
